CCSDS_OEM_VERS = 1.0
CREATION_DATE  = 2017-05-11T11:48:05
ORIGINATOR     = GMAT USER

META_START
OBJECT_NAME          = MOPSSat_alt_35785_km_RAAN_270_001
OBJECT_ID            = SatId
CENTER_NAME          = Earth
REF_FRAME            = EME2000
TIME_SYSTEM          = UTC
START_TIME           = 2017-01-01T00:00:00.000
USEABLE_START_TIME   = 2017-01-01T00:00:00.000
USEABLE_STOP_TIME    = 2017-01-02T00:00:00.000
STOP_TIME            = 2017-01-02T00:00:00.000
INTERPOLATION        = Lagrange
INTERPOLATION_DEGREE = 7 
META_STOP


                                                                                   

2017-01-01T10:32:30.000   1.541119854003815e+04   3.924414384604614e+04  -1.094326622959287e+00  -2.862124675913364e+00   1.123679501963944e+00   4.402032075106174e-05
2017-01-01T10:32:40.000   1.538257319699964e+04   3.925537020397109e+04  -1.093886004062216e+00  -2.862943631842726e+00   1.121591965325744e+00   4.410345758238760e-05
2017-01-01T10:32:50.000   1.535393967224532e+04   3.926657568345381e+04  -1.093444553811570e+00  -2.863761065231027e+00   1.119503831829933e+00   4.418659216754173e-05
2017-01-01T10:33:00.000   1.532529798100289e+04   3.927776027853158e+04  -1.093002272230127e+00  -2.864576975642963e+00   1.117415102586871e+00   4.426972444570971e-05
2017-01-01T10:33:10.000   1.529664813847270e+04   3.928892398326538e+04  -1.092559159340790e+00  -2.865391362644950e+00   1.115325778704923e+00   4.435285435616145e-05
2017-01-01T10:33:20.000   1.526799015975908e+04   3.930006679176557e+04  -1.092115215165494e+00  -2.866204225807013e+00   1.113235861285452e+00   4.443598183847090e-05
2017-01-01T10:33:30.000   1.523932405997304e+04   3.931118869815270e+04  -1.091670439726815e+00  -2.867015564699914e+00   1.111145351430310e+00   4.451910683219737e-05
2017-01-01T10:33:40.000   1.521064985424263e+04   3.932228969655353e+04  -1.091224833048139e+00  -2.867825378894872e+00   1.109054250242595e+00   4.460222927686323e-05
2017-01-01T10:33:50.000   1.518196755774104e+04   3.933336978108880e+04  -1.090778395154055e+00  -2.868633667962663e+00   1.106962558828691e+00   4.468534911184991e-05
2017-01-01T10:34:00.000   1.515327718571008e+04   3.934442894586579e+04  -1.090331126070768e+00  -2.869440431473087e+00   1.104870278299991e+00   4.476846627635281e-05
2017-01-01T10:34:10.000   1.512457875337555e+04   3.935546718501046e+04  -1.089883025824766e+00  -2.870245668997295e+00   1.102777409766724e+00   4.485158070961797e-05
2017-01-01T10:34:20.000   1.509587227632622e+04   3.936648449252376e+04  -1.089434094448801e+00  -2.871049380097327e+00   1.100683954365583e+00   4.493469234986850e-05
2017-01-01T10:34:30.000   1.506715777005473e+04   3.937748086245609e+04  -1.088984331974656e+00  -2.871851564338830e+00   1.098589913226255e+00   4.501780113561018e-05
2017-01-01T10:34:40.000   1.503843525012821e+04   3.938845628884218e+04  -1.088533738435825e+00  -2.872652221286298e+00   1.096495287483864e+00   4.510090700514585e-05
2017-01-01T10:34:50.000   1.500970473152774e+04   3.939941076595380e+04  -1.088082313857158e+00  -2.873451350521528e+00   1.094400078230787e+00   4.518400989846596e-05
2017-01-01T10:35:00.000   1.498096622930709e+04   3.941034428804750e+04  -1.087630058265184e+00  -2.874248951625200e+00   1.092304286564711e+00   4.526710975536291e-05
2017-01-01T10:35:10.000   1.495221975844365e+04   3.942125684942224e+04  -1.087176971685786e+00  -2.875045024181090e+00   1.090207913577748e+00   4.535020651585573e-05
2017-01-01T10:35:20.000   1.492346533420960e+04   3.943214844427508e+04  -1.086723054149953e+00  -2.875839567765534e+00   1.088110960383512e+00   4.543330011913405e-05
2017-01-01T10:35:30.000   1.489470297189658e+04   3.944301906680907e+04  -1.086268305689548e+00  -2.876632581955314e+00   1.086013428097038e+00   4.551639050433713e-05
2017-01-01T10:35:40.000   1.486593268681536e+04   3.945386871123219e+04  -1.085812726337251e+00  -2.877424066327562e+00   1.083915317834752e+00   4.559947761056058e-05
2017-01-01T10:35:50.000   1.483715449457337e+04   3.946469737165573e+04  -1.085356316131060e+00  -2.878214020452360e+00   1.081816630734718e+00   4.568256137603973e-05
2017-01-01T10:36:00.000   1.480836841070119e+04   3.947550504223216e+04  -1.084899075108281e+00  -2.879002443902797e+00   1.079717367929397e+00   4.576564173924303e-05
2017-01-01T10:36:10.000   1.477957445079954e+04   3.948629171710056e+04  -1.084441003307880e+00  -2.879789336250978e+00   1.077617530556365e+00   4.584871863844264e-05
2017-01-01T10:36:20.000   1.475077262988957e+04   3.949705739063006e+04  -1.083982100760153e+00  -2.880574697085793e+00   1.075517119710932e+00   4.593179201360294e-05
2017-01-01T10:36:30.000   1.472196296306249e+04   3.950780205717616e+04  -1.083522367497048e+00  -2.881358525995136e+00   1.073416136493519e+00   4.601486180449287e-05
2017-01-01T10:36:40.000   1.469314546533282e+04   3.951852571113619e+04  -1.083061803549846e+00  -2.882140822569955e+00   1.071314581998953e+00   4.609792795111397e-05
2017-01-01T10:36:50.000   1.466432015201053e+04   3.952922834680755e+04  -1.082600408955014e+00  -2.882921586393903e+00   1.069212457343611e+00   4.618099039261573e-05
2017-01-01T10:37:00.000   1.463548703842505e+04   3.953990995849380e+04  -1.082138183749890e+00  -2.883700817051086e+00   1.067109763645287e+00   4.626404906810260e-05
2017-01-01T10:37:10.000   1.460664613992484e+04   3.955057054050351e+04  -1.081675127972640e+00  -2.884478514125974e+00   1.065006502023166e+00   4.634710391663180e-05
2017-01-01T10:37:20.000   1.457779747215570e+04   3.956121008705052e+04  -1.081211241666822e+00  -2.885254677196123e+00   1.062902673618115e+00   4.643015487641858e-05
2017-01-01T10:37:30.000   1.454894105068630e+04   3.957182859238936e+04  -1.080746524875281e+00  -2.886029305842060e+00   1.060798279565379e+00   4.651320188590868e-05
2017-01-01T10:37:40.000   1.452007689115555e+04   3.958242605076163e+04  -1.080280977642536e+00  -2.886802399643365e+00   1.058693321005325e+00   4.659624488335446e-05
2017-01-01T10:37:50.000   1.449120500862126e+04   3.959300245663510e+04  -1.079814600004291e+00  -2.887573958196125e+00   1.056587799035944e+00   4.667928380869235e-05
2017-01-01T10:38:00.000   1.446232541821140e+04   3.960355780446448e+04  -1.079347391997914e+00  -2.888343981095459e+00   1.054481714760343e+00   4.676231860166417e-05
2017-01-01T10:38:10.000   1.443343813497698e+04   3.961409208874574e+04  -1.078879353660090e+00  -2.889112467939511e+00   1.052375069276019e+00   4.684534920224405e-05
2017-01-01T10:38:20.000   1.440454317426513e+04   3.962460530387690e+04  -1.078410485032760e+00  -2.889879418319267e+00   1.050267863702062e+00   4.692837554955034e-05
2017-01-01T10:38:30.000   1.437564055144236e+04   3.963509744426221e+04  -1.077940786158747e+00  -2.890644831826177e+00   1.048160099158980e+00   4.701139758265797e-05
2017-01-01T10:38:40.000   1.434673028189420e+04   3.964556850431110e+04  -1.077470257081702e+00  -2.891408708052060e+00   1.046051776768665e+00   4.709441524059286e-05
2017-01-01T10:38:50.000   1.431781238130415e+04   3.965601847834021e+04  -1.076998897850743e+00  -2.892171046581970e+00   1.043942897674740e+00   4.717742846155327e-05
2017-01-01T10:39:00.000   1.428888686527828e+04   3.966644736070638e+04  -1.076526708514256e+00  -2.892931847003891e+00   1.041833463015187e+00   4.726043718396486e-05
2017-01-01T10:39:10.000   1.425995374949582e+04   3.967685514575296e+04  -1.076053689122369e+00  -2.893691108904822e+00   1.039723473933316e+00   4.734344134605665e-05
2017-01-01T10:39:20.000   1.423101304904526e+04   3.968724182804855e+04  -1.075579839716101e+00  -2.894448831888198e+00   1.037612931529364e+00   4.742644088774392e-05
2017-01-01T10:39:30.000   1.420206477908985e+04   3.969760740214752e+04  -1.075105160338232e+00  -2.895205015556412e+00   1.035501836909016e+00   4.750943574874045e-05
2017-01-01T10:39:40.000   1.417310895469584e+04   3.970795186265199e+04  -1.074629651030507e+00  -2.895959659515337e+00   1.033390191170888e+00   4.759242586904371e-05
2017-01-01T10:39:50.000   1.414414559129399e+04   3.971827520404425e+04  -1.074153311841132e+00  -2.896712763362112e+00   1.031277995440176e+00   4.767541118763104e-05
2017-01-01T10:40:00.000   1.411517470429888e+04   3.972857742082553e+04  -1.073676142818607e+00  -2.897464326695245e+00   1.029165250840898e+00   4.775839164353179e-05
2017-01-01T10:40:10.000   1.408619630919381e+04   3.973885850748477e+04  -1.073198144013090e+00  -2.898214349112360e+00   1.027051958502083e+00   4.784136717559133e-05
2017-01-01T10:40:20.000   1.405721042150819e+04   3.974911845850864e+04  -1.072719315476087e+00  -2.898962830210907e+00   1.024938119556126e+00   4.792433772251578e-05
2017-01-01T10:40:30.000   1.402821705678827e+04   3.975935726839034e+04  -1.072239657259922e+00  -2.899709769588814e+00   1.022823735136649e+00   4.800730322297625e-05
2017-01-01T10:40:40.000   1.399921623058668e+04   3.976957493163358e+04  -1.071759169417568e+00  -2.900455166844775e+00   1.020708806377739e+00   4.809026361563101e-05
2017-01-01T10:40:50.000   1.397020795835895e+04   3.977977144278971e+04  -1.071277852000959e+00  -2.901199021580961e+00   1.018593334406405e+00   4.817321883944396e-05
2017-01-01T10:41:00.000   1.394119225553241e+04   3.978994679643260e+04  -1.070795705062105e+00  -2.901941333401180e+00   1.016477320347597e+00   4.825616883346510e-05
2017-01-01T10:41:10.000   1.391216913750614e+04   3.980010098715876e+04  -1.070312728653090e+00  -2.902682101910896e+00   1.014360765324211e+00   4.833911353683834e-05
2017-01-01T10:41:20.000   1.388313861958158e+04   3.981023400961073e+04  -1.069828922824895e+00  -2.903421326718927e+00   1.012243670452017e+00   4.842205288897791e-05
2017-01-01T10:41:30.000   1.385410071706647e+04   3.982034585844139e+04  -1.069344287629150e+00  -2.904159007434850e+00   1.010126036847248e+00   4.850498682929300e-05
